{
    "type": "FeatureCollection",
    "features": [
        {
            "type": "Feature",
            "properties": {},
            "geometry": {
                "coordinates": [
                    [
                        [
                            -98.73875969190912,
                            31.100306355446108
                        ],
                        [
                            -98.73875969190912,
                            17.444407942371157
                        ],
                        [
                            -80.20286516849585,
                            17.444407942371157
                        ],
                        [
                            -80.20286516849585,
                            31.100306355446108
                        ],
                        [
                            -98.73875969190912,
                            31.100306355446108
                        ]
                    ]
                ],
                "type": "Polygon"
            }
        }
    ]
}